{"type": "FeatureCollection", "features": [ {"type": "Feature", "properties": {"norad_id": 33825, "name": "COSMOS 2251 DEB", "group": "cosmos-2251-debris", "lat": 68.34758052763931, "lon": 168.2560111175557, "alt_km": 667.0436847644542, "timestamp": "2025-12-09T05:43:21.119051+00:00", "meta": {"OBJECT_NAME": "COSMOS 2251 DEB", "OBJECT_ID": "1993-036BS", "EPOCH": "2025-12-08T13:29:10.217184", "MEAN_MOTION": 14.69708612, "ECCENTRICITY": 0.008433, "INCLINATION": 73.9851, "RA_OF_ASC_NODE": 35.9146, "ARG_OF_PERICENTER": 3.9987, "MEAN_ANOMALY": 121.8448, "EPHEMERIS_TYPE": 0, "CLASSIFICATION_TYPE": "U", "NORAD_CAT_ID": 33825, "ELEMENT_SET_NO": 999, "REV_AT_EPOCH": 88818, "BSTAR": 0.0011359, "MEAN_MOTION_DOT": 7.121e-05, "MEAN_MOTION_DDOT": 0}, "tle": {"line1": "1 33825U 93036BS  25342.56192381  .00007121  00000+0  11359-2 0  9994", "line2": "2 33825  73.9851  35.9146 0084330   3.9987 121.8448 14.69708612888183"}}, "geometry": {"type": "Point", "coordinates": [168.2560111175557, 68.34758052763931]}}, {"type": "Feature", "properties": {"norad_id": 33826, "name": "COSMOS 2251 DEB", "group": "cosmos-2251-debris", "lat": -39.85534959895671, "lon": -109.74257763296812, "alt_km": 755.4238064711135, "timestamp": "2025-12-09T05:43:21.119062+00:00", "meta": {"OBJECT_NAME": "COSMOS 2251 DEB", "OBJECT_ID": "1993-036BT", "EPOCH": "2025-12-08T16:01:24.642912", "MEAN_MOTION": 14.51664644, "ECCENTRICITY": 0.0083653, "INCLINATION": 74.065, "RA_OF_ASC_NODE": 57.5314, "ARG_OF_PERICENTER": 103.1899, "MEAN_ANOMALY": 15.9338, "EPHEMERIS_TYPE": 0, "CLASSIFICATION_TYPE": "U", "NORAD_CAT_ID": 33826, "ELEMENT_SET_NO": 999, "REV_AT_EPOCH": 87710, "BSTAR": 0.0017127, "MEAN_MOTION_DOT": 7.169e-05, "MEAN_MOTION_DDOT": 0}, "tle": {"line1": "1 33826U 93036BT  25342.66764633  .00007169  00000+0  17127-2 0  9992", "line2": "2 33826  74.0650  57.5314 0083653 103.1899  15.9338 14.51664644877100"}}, "geometry": {"type": "Point", "coordinates": [-109.74257763296812, -39.85534959895671]}}, {"type": "Feature", "properties": {"norad_id": 33828, "name": "COSMOS 2251 DEB", "group": "cosmos-2251-debris", "lat": -28.780222350540118, "lon": 73.64114183981195, "alt_km": 756.2110252829798, "timestamp": "2025-12-09T05:43:21.119073+00:00", "meta": {"OBJECT_NAME": "COSMOS 2251 DEB", "OBJECT_ID": "1993-036BV", "EPOCH": "2025-12-08T20:45:24.971040", "MEAN_MOTION": 14.44315222, "ECCENTRICITY": 0.0029416, "INCLINATION": 74.047, "RA_OF_ASC_NODE": 245.2954, "ARG_OF_PERICENTER": 318.7731, "MEAN_ANOMALY": 109.9068, "EPHEMERIS_TYPE": 0, "CLASSIFICATION_TYPE": "U", "NORAD_CAT_ID": 33828, "ELEMENT_SET_NO": 999, "REV_AT_EPOCH": 88257, "BSTAR": 0.00093975, "MEAN_MOTION_DOT": 3.225e-05, "MEAN_MOTION_DDOT": 0}, "tle": {"line1": "1 33828U 93036BV  25342.86487235  .00003225  00000+0  93975-3 0  9991", "line2": "2 33828  74.0470 245.2954 0029416 318.7731 109.9068 14.44315222882572"}}, "geometry": {"type": "Point", "coordinates": [73.64114183981195, -28.780222350540118]}}, {"type": "Feature", "properties": {"norad_id": 33830, "name": "COSMOS 2251 DEB", "group": "cosmos-2251-debris", "lat": 34.090832821154, "lon": -111.59522677833077, "alt_km": 613.3325255430354, "timestamp": "2025-12-09T05:43:21.119084+00:00", "meta": {"OBJECT_NAME": "COSMOS 2251 DEB", "OBJECT_ID": "1993-036BX", "EPOCH": "2025-12-08T20:06:53.537760", "MEAN_MOTION": 14.76822707, "ECCENTRICITY": 0.0042271, "INCLINATION": 74.0322, "RA_OF_ASC_NODE": 238.015, "ARG_OF_PERICENTER": 358.8698, "MEAN_ANOMALY": 69.1489, "EPHEMERIS_TYPE": 0, "CLASSIFICATION_TYPE": "U", "NORAD_CAT_ID": 33830, "ELEMENT_SET_NO": 999, "REV_AT_EPOCH": 89414, "BSTAR": 0.0013689, "MEAN_MOTION_DOT": 9.731e-05, "MEAN_MOTION_DDOT": 0}, "tle": {"line1": "1 33830U 93036BX  25342.83811965  .00009731  00000+0  13689-2 0  9993", "line2": "2 33830  74.0322 238.0150 0042271 358.8698  69.1489 14.76822707894146"}}, "geometry": {"type": "Point", "coordinates": [-111.59522677833077, 34.090832821154]}}, {"type": "Feature", "properties": {"norad_id": 33832, "name": "COSMOS 2251 DEB", "group": "cosmos-2251-debris", "lat": -64.2575300016449, "lon": -179.71331081339548, "alt_km": 684.9065182689856, "timestamp": "2025-12-09T05:43:21.119101+00:00", "meta": {"OBJECT_NAME": "COSMOS 2251 DEB", "OBJECT_ID": "1993-036BZ", "EPOCH": "2025-12-08T17:08:59.329248", "MEAN_MOTION": 14.60568716, "ECCENTRICITY": 0.0025213, "INCLINATION": 74.0536, "RA_OF_ASC_NODE": 217.6543, "ARG_OF_PERICENTER": 249.6205, "MEAN_ANOMALY": 167.3296, "EPHEMERIS_TYPE": 0, "CLASSIFICATION_TYPE": "U", "NORAD_CAT_ID": 33832, "ELEMENT_SET_NO": 999, "REV_AT_EPOCH": 88366, "BSTAR": 0.0017927, "MEAN_MOTION_DOT": 8.731e-05, "MEAN_MOTION_DDOT": 0}, "tle": {"line1": "1 33832U 93036BZ  25342.71457557  .00008731  00000+0  17927-2 0  9993", "line2": "2 33832  74.0536 217.6543 0025213 249.6205 167.3296 14.60568716883664"}}, "geometry": {"type": "Point", "coordinates": [-179.71331081339548, -64.2575300016449]}}, {"type": "Feature", "properties": {"norad_id": 33835, "name": "COSMOS 2251 DEB", "group": "cosmos-2251-debris", "lat": 68.35051410043548, "lon": -118.25989160755879, "alt_km": 658.054151873489, "timestamp": "2025-12-09T05:43:21.119112+00:00", "meta": {"OBJECT_NAME": "COSMOS 2251 DEB", "OBJECT_ID": "1993-036CC", "EPOCH": "2025-12-08T18:28:42.235392", "MEAN_MOTION": 14.62180373, "ECCENTRICITY": 0.0055108, "INCLINATION": 74.0577, "RA_OF_ASC_NODE": 108.7021, "ARG_OF_PERICENTER": 163.3352, "MEAN_ANOMALY": 356.8681, "EPHEMERIS_TYPE": 0, "CLASSIFICATION_TYPE": "U", "NORAD_CAT_ID": 33835, "ELEMENT_SET_NO": 999, "REV_AT_EPOCH": 88731, "BSTAR": 0.001751, "MEAN_MOTION_DOT": 8.99e-05, "MEAN_MOTION_DDOT": 0}, "tle": {"line1": "1 33835U 93036CC  25342.76993328  .00008990  00000+0  17510-2 0  9997", "line2": "2 33835  74.0577 108.7021 0055108 163.3352 356.8681 14.62180373887314"}}, "geometry": {"type": "Point", "coordinates": [-118.25989160755879, 68.35051410043548]}}, {"type": "Feature", "properties": {"norad_id": 33836, "name": "COSMOS 2251 DEB", "group": "cosmos-2251-debris", "lat": -73.97139403406581, "lon": 178.47034445903978, "alt_km": 651.5079050578006, "timestamp": "2025-12-09T05:43:21.119124+00:00", "meta": {"OBJECT_NAME": "COSMOS 2251 DEB", "OBJECT_ID": "1993-036CD", "EPOCH": "2025-12-08T20:38:39.379200", "MEAN_MOTION": 14.79501396, "ECCENTRICITY": 0.002249, "INCLINATION": 73.9974, "RA_OF_ASC_NODE": 266.605, "ARG_OF_PERICENTER": 121.2418, "MEAN_ANOMALY": 295.4911, "EPHEMERIS_TYPE": 0, "CLASSIFICATION_TYPE": "U", "NORAD_CAT_ID": 33836, "ELEMENT_SET_NO": 999, "REV_AT_EPOCH": 64031, "BSTAR": 0.0019393, "MEAN_MOTION_DOT": 0.0001456, "MEAN_MOTION_DDOT": 0}, "tle": {"line1": "1 33836U 93036CD  25342.86017800  .00014560  00000+0  19393-2 0  9992", "line2": "2 33836  73.9974 266.6050 0022490 121.2418 295.4911 14.79501396640315"}}, "geometry": {"type": "Point", "coordinates": [178.47034445903978, -73.97139403406581]}}, {"type": "Feature", "properties": {"norad_id": 33837, "name": "COSMOS 2251 DEB", "group": "cosmos-2251-debris", "lat": -66.77370517585966, "lon": -75.89394131597265, "alt_km": 708.5838364764923, "timestamp": "2025-12-09T05:43:21.119135+00:00", "meta": {"OBJECT_NAME": "COSMOS 2251 DEB", "OBJECT_ID": "1993-036CE", "EPOCH": "2025-12-08T13:39:43.464384", "MEAN_MOTION": 14.5068869, "ECCENTRICITY": 0.0035802, "INCLINATION": 74.0132, "RA_OF_ASC_NODE": 63.4496, "ARG_OF_PERICENTER": 285.8561, "MEAN_ANOMALY": 73.8654, "EPHEMERIS_TYPE": 0, "CLASSIFICATION_TYPE": "U", "NORAD_CAT_ID": 33837, "ELEMENT_SET_NO": 999, "REV_AT_EPOCH": 88735, "BSTAR": 0.00052826, "MEAN_MOTION_DOT": 2.065e-05, "MEAN_MOTION_DDOT": 0}, "tle": {"line1": "1 33837U 93036CE  25342.56925306  .00002065  00000+0  52826-3 0  9995", "line2": "2 33837  74.0132  63.4496 0035802 285.8561  73.8654 14.50688690887359"}}, "geometry": {"type": "Point", "coordinates": [-75.89394131597265, -66.77370517585966]}}, {"type": "Feature", "properties": {"norad_id": 33838, "name": "COSMOS 2251 DEB", "group": "cosmos-2251-debris", "lat": 24.022342115963596, "lon": -30.959051242459378, "alt_km": 740.9389465877503, "timestamp": "2025-12-09T05:43:21.119145+00:00", "meta": {"OBJECT_NAME": "COSMOS 2251 DEB", "OBJECT_ID": "1993-036CF", "EPOCH": "2025-12-08T14:27:02.710944", "MEAN_MOTION": 14.48344866, "ECCENTRICITY": 0.0027446, "INCLINATION": 74.0361, "RA_OF_ASC_NODE": 157.562, "ARG_OF_PERICENTER": 280.0083, "MEAN_ANOMALY": 158.6257, "EPHEMERIS_TYPE": 0, "CLASSIFICATION_TYPE": "U", "NORAD_CAT_ID": 33838, "ELEMENT_SET_NO": 999, "REV_AT_EPOCH": 88509, "BSTAR": 0.00072298, "MEAN_MOTION_DOT": 2.69e-05, "MEAN_MOTION_DDOT": 0}, "tle": {"line1": "1 33838U 93036CF  25342.60211471  .00002690  00000+0  72298-3 0  9991", "line2": "2 33838  74.0361 157.5620 0027446 280.0083 158.6257 14.48344866885090"}}, "geometry": {"type": "Point", "coordinates": [-30.959051242459378, 24.022342115963596]}}, {"type": "Feature", "properties": {"norad_id": 33839, "name": "COSMOS 2251 DEB", "group": "cosmos-2251-debris", "lat": -55.02457384015971, "lon": 57.35666161855533, "alt_km": 682.7520846761299, "timestamp": "2025-12-09T05:43:21.119157+00:00", "meta": {"OBJECT_NAME": "COSMOS 2251 DEB", "OBJECT_ID": "1993-036CG", "EPOCH": "2025-12-08T15:37:06.140064", "MEAN_MOTION": 14.64404546, "ECCENTRICITY": 0.0084985, "INCLINATION": 74.0391, "RA_OF_ASC_NODE": 214.3368, "ARG_OF_PERICENTER": 327.3782, "MEAN_ANOMALY": 55.137, "EPHEMERIS_TYPE": 0, "CLASSIFICATION_TYPE": "U", "NORAD_CAT_ID": 33839, "ELEMENT_SET_NO": 999, "REV_AT_EPOCH": 89520, "BSTAR": 0.00045413, "MEAN_MOTION_DOT": 2.499e-05, "MEAN_MOTION_DDOT": 0}, "tle": {"line1": "1 33839U 93036CG  25342.65076551  .00002499  00000+0  45413-3 0  9991", "line2": "2 33839  74.0391 214.3368 0084985 327.3782  55.1370 14.64404546895208"}}, "geometry": {"type": "Point", "coordinates": [57.35666161855533, -55.02457384015971]}}]}